{
  "norad_id": 67619,
  "name": "STARLINK-36119",
  "history": [
    {
      "epoch": "2026-03-28T12:54:08.817984",
      "apogee_km": 483.6400742294991,
      "perigee_km": 482.35566978146016,
      "latitude_deg": 34.048892171294625,
      "longitude_deg": -86.4902022399474,
      "semi_major_axis_km": 6861.134872005479,
      "eccentricity": 9.36e-05,
      "inclination_deg": 42.9995,
      "raan_deg": 33.5605,
      "arg_perigee_deg": 246.2917,
      "mean_anomaly_deg": 113.7837,
      "mean_motion_rev_day": 15.27597107
    },
    {
      "epoch": "2026-03-29T03:01:32.849760",
      "apogee_km": 483.2840839167202,
      "perigee_km": 482.6144418974609,
      "latitude_deg": -34.29123025769233,
      "longitude_deg": -29.996833600103855,
      "semi_major_axis_km": 6861.08626290709,
      "eccentricity": 4.88e-05,
      "inclination_deg": 43.0017,
      "raan_deg": 30.2383,
      "arg_perigee_deg": 186.3345,
      "mean_anomaly_deg": 173.7501,
      "mean_motion_rev_day": 15.27613341
    }
  ]
}